OBJECT_NAME,OBJECT_ID,EPOCH,MEAN_MOTION,ECCENTRICITY,INCLINATION,RA_OF_ASC_NODE,ARG_OF_PERICENTER,MEAN_ANOMALY,EPHEMERIS_TYPE,CLASSIFICATION_TYPE,NORAD_CAT_ID,ELEMENT_SET_NO,REV_AT_EPOCH,BSTAR,MEAN_MOTION_DOT,MEAN_MOTION_DDOT
STARLINK-32204,2024-150B,2026-07-08T11:35:41.378784,15.34394334,.00018856,53.1585,103.9532,87.6767,272.4451,0,U,60584,999,10656,.62170492E-4,.1724E-4,0
STARLINK-32130,2024-150C,2026-07-08T11:50:13.868448,15.30190737,.00016025,53.1604,106.1414,85.1990,274.9194,0,U,60585,999,10645,.45077338E-4,.976E-5,0
STARLINK-32173,2024-150D,2026-07-08T04:32:01.239072,15.34404002,.00010354,53.1574,104.9610,86.4411,273.6710,0,U,60586,999,10652,.65874773E-4,.185E-4,0
STARLINK-31911,2024-150E,2026-07-08T11:29:37.927680,15.34383398,.00013404,53.1600,103.9268,96.0972,264.0183,0,U,60587,999,10648,.76814115E-4,.2218E-4,0
STARLINK-31994,2024-150F,2026-07-08T04:22:56.288352,15.34404571,.00012307,53.1574,104.9241,88.4465,271.6678,0,U,60588,999,10644,.16730496E-3,.5281E-4,0
STARLINK-32169,2024-150G,2026-07-07T22:00:28.215936,15.30193812,.00019423,53.1590,108.9409,109.3456,250.7755,0,U,60589,999,10644,.13643703E-3,.3683E-4,0
STARLINK-32209,2024-150H,2026-07-08T10:56:17.921472,15.34398975,.00012711,53.1598,103.7797,95.8975,264.2172,0,U,60590,999,10656,.26349287E-4,.514E-5,0
STARLINK-32170,2024-150J,2026-07-08T11:59:21.247008,15.30192644,.00016355,53.1594,106.1794,83.2934,276.8253,0,U,60591,999,10645,.37169747E-4,.741E-5,0
STARLINK-31497,2024-150K,2026-07-08T05:02:19.775904,15.34385565,.00014952,53.1594,105.0880,114.6512,245.4646,0,U,60592,999,10652,.41233689E-4,.1016E-4,0
STARLINK-32161,2024-150L,2026-07-08T04:59:17.330208,15.34383818,.00005668,53.1589,105.0786,92.3858,267.7209,0,U,60593,999,10644,-.4253239E-5,-.519E-5,0
STARLINK-32210,2024-150M,2026-07-08T11:50:50.339616,15.34392112,.00015164,53.1597,104.0145,89.9598,270.1579,0,U,60594,999,10656,.59322246E-4,.1628E-4,0
STARLINK-32202,2024-150N,2026-07-08T04:39:04.358880,15.31711632,.00016047,53.1573,107.1160,129.9585,230.1558,0,U,60595,999,10649,-.51918117E-4,-.1977E-4,0
STARLINK-31930,2024-150P,2026-07-08T11:41:44.885184,15.34395743,.00028954,53.1572,103.9746,87.4611,272.6723,0,U,60596,999,10648,.12318444E-3,.3787E-4,0
STARLINK-32162,2024-150Q,2026-07-08T12:03:54.292608,15.30198919,.00015293,53.1580,106.2013,100.1326,259.9848,0,U,60597,999,10653,.71788465E-4,.1767E-4,0
STARLINK-32208,2024-150R,2026-07-08T12:08:28.153824,15.30190486,.00017727,53.1588,106.2164,105.7313,254.3883,0,U,60598,999,10653,.10921507E-4,-.36E-6,0
STARLINK-32165,2024-150S,2026-07-08T11:54:46.984896,15.30196413,.00012162,53.1589,106.1605,90.7592,269.3548,0,U,60599,999,10653,.65501005E-4,.1581E-4,0
STARLINK-31923,2024-150T,2026-07-08T11:39:35.885664,15.30193214,.00013239,53.1607,106.0929,95.0835,265.0317,0,U,60600,999,10653,.74056046E-4,.1834E-4,0
STARLINK-31988,2024-150U,2026-07-08T11:38:42.828288,15.34398684,.00015464,53.1600,103.9631,99.6457,260.4721,0,U,60601,999,10648,.3210747E-5,-.268E-5,0
STARLINK-31983,2024-150V,2026-07-08T11:05:23.535744,15.34393815,.00014493,53.1597,103.8204,89.0503,271.0666,0,U,60602,999,10648,.42474329E-4,.1059E-4,0
STARLINK-31874,2024-150W,2026-07-07T22:56:13.953120,15.34405902,.00011982,53.1576,106.3478,91.6870,268.4270,0,U,60603,999,10648,.11732041E-3,.359E-4,0
STARLINK-32039,2024-150X,2026-07-08T04:50:52.676448,15.30189060,.00013712,53.1577,110.0047,118.0831,242.0309,0,U,60604,999,10645,.77316387E-4,.1931E-4,0
STARLINK-11247 [DTC],2024-152A,2026-07-08T13:15:30.782304,15.69725612,.00013003,53.1590,240.7632,71.0283,289.0875,0,U,60720,999,10781,-.22948243E-4,-.337E-4,0
STARLINK-11259 [DTC],2024-152B,2026-07-08T13:08:26.752704,15.69729995,.00012293,53.1594,240.7287,86.9174,273.1985,0,U,60721,999,10781,-.2475163E-4,-.3589E-4,0
STARLINK-11188 [DTC],2024-152C,2026-07-08T13:01:22.624608,15.69739296,.00012311,53.1590,240.6979,81.4566,278.6591,0,U,60722,999,10793,-.10789726E-4,-.1897E-4,0
STARLINK-11272 [DTC],2024-152D,2026-07-08T03:37:09.919200,15.69717353,.00019819,53.1594,242.5171,84.1995,275.9249,0,U,60723,999,10775,-.16579954E-4,-.2599E-4,0
STARLINK-11261 [DTC],2024-152E,2026-07-08T09:50:55.700160,15.69737373,.00006414,53.1605,241.2951,46.4091,313.6980,0,U,60724,999,10779,-.169089E-6,-.609E-5,0
STARLINK-11263 [DTC],2024-152F,2026-07-08T12:40:11.810208,15.69718683,.00007538,53.1566,240.5974,80.9961,279.1142,0,U,60725,999,10781,.33690227E-4,.3496E-4,0
STARLINK-11235 [DTC],2024-152G,2026-07-08T12:33:07.691616,15.69710730,.00008856,53.1583,240.5666,67.5134,292.5978,0,U,60726,999,10794,.6400787E-5,.187E-5,0
STARLINK-11080 [DTC],2024-152H,2026-07-08T12:26:04.104384,15.69712782,.00019053,53.1579,240.5350,92.1121,268.0115,0,U,60727,999,10794,.10062268E-4,.629E-5,0
STARLINK-11249 [DTC],2024-152J,2026-07-08T03:08:54.695040,15.69710635,.00007045,53.1569,242.3816,55.2037,304.9047,0,U,60728,999,10775,-.15206799E-4,-.243E-4,0
