STARLINK-32204          
1 60584U 24150B   26189.48311781  .00001724  00000+0  62170-4 0  9997
2 60584  53.1585 103.9532 0001885  87.6767 272.4451 15.34394334106560
STARLINK-32130          
1 60585U 24150C   26189.49321607  .00000976  00000+0  45077-4 0  9992
2 60585  53.1604 106.1414 0001602  85.1990 274.9194 15.30190737106451
STARLINK-32173          
1 60586U 24150D   26189.18890323  .00001850  00000+0  65875-4 0  9995
2 60586  53.1574 104.9610 0001035  86.4411 273.6710 15.34404002106529
STARLINK-31911          
1 60587U 24150E   26189.47891120  .00002218  00000+0  76814-4 0  9998
2 60587  53.1600 103.9268 0001340  96.0972 264.0183 15.34383398106483
STARLINK-31994          
1 60588U 24150F   26189.18259593  .00005281  00000+0  16730-3 0  9992
2 60588  53.1574 104.9241 0001230  88.4465 271.6678 15.34404571106442
STARLINK-32169          
1 60589U 24150G   26188.91699324  .00003683  00000+0  13644-3 0  9998
2 60589  53.1590 108.9409 0001942 109.3456 250.7755 15.30193812106447
STARLINK-32209          
1 60590U 24150H   26189.45576298  .00000514  00000+0  26349-4 0  9991
2 60590  53.1598 103.7797 0001271  95.8975 264.2172 15.34398975106567
STARLINK-32170          
1 60591U 24150J   26189.49955147  .00000741  00000+0  37170-4 0  9996
2 60591  53.1594 106.1794 0001635  83.2934 276.8253 15.30192644106456
STARLINK-31497          
1 60592U 24150K   26189.20995111  .00001016  00000+0  41234-4 0  9993
2 60592  53.1594 105.0880 0001495 114.6512 245.4646 15.34385565106522
STARLINK-32161          
1 60593U 24150L   26189.20783947 -.00000519  00000+0 -42532-5 0  9998
2 60593  53.1589 105.0786 0000566  92.3858 267.7209 15.34383818106447
STARLINK-32210          
1 60594U 24150M   26189.49363819  .00001628  00000+0  59322-4 0  9996
2 60594  53.1597 104.0145 0001516  89.9598 270.1579 15.34392112106562
STARLINK-32202          
1 60595U 24150N   26189.19380045 -.00001977  00000+0 -51918-4 0  9996
2 60595  53.1573 107.1160 0001604 129.9585 230.1558 15.31711632106491
STARLINK-31930          
1 60596U 24150P   26189.48732506  .00003787  00000+0  12318-3 0  9991
2 60596  53.1572 103.9746 0002895  87.4611 272.6723 15.34395743106484
STARLINK-32162          
1 60597U 24150Q   26189.50271172  .00001767  00000+0  71788-4 0  9995
2 60597  53.1580 106.2013 0001529 100.1326 259.9848 15.30198919106530
STARLINK-32208          
1 60598U 24150R   26189.50588141 -.00000036  00000+0  10922-4 0  9995
2 60598  53.1588 106.2164 0001772 105.7313 254.3883 15.30190486106532
STARLINK-32165          
1 60599U 24150S   26189.49637714  .00001581  00000+0  65501-4 0  9993
2 60599  53.1589 106.1605 0001216  90.7592 269.3548 15.30196413106538
STARLINK-31923          
1 60600U 24150T   26189.48583201  .00001834  00000+0  74056-4 0  9992
2 60600  53.1607 106.0929 0001323  95.0835 265.0317 15.30193214106530
STARLINK-31988          
1 60601U 24150U   26189.48521792 -.00000268  00000+0  32107-5 0  9993
2 60601  53.1600 103.9631 0001546  99.6457 260.4721 15.34398684106481
STARLINK-31983          
1 60602U 24150V   26189.46207796  .00001059  00000+0  42474-4 0  9992
2 60602  53.1597 103.8204 0001449  89.0503 271.0666 15.34393815106486
STARLINK-31874          
1 60603U 24150W   26188.95571705  .00003590  00000+0  11732-3 0  9994
2 60603  53.1576 106.3478 0001198  91.6870 268.4270 15.34405902106484
STARLINK-32039          
1 60604U 24150X   26189.20199857  .00001931  00000+0  77316-4 0  9996
2 60604  53.1577 110.0047 0001371 118.0831 242.0309 15.30189060106452
STARLINK-11247 [DTC]    
1 60720U 24152A   26189.55243961 -.00003370  00000+0 -22948-4 0  9993
2 60720  53.1590 240.7632 0001300  71.0283 289.0875 15.69725612107819
STARLINK-11259 [DTC]    
1 60721U 24152B   26189.54753186 -.00003589  00000+0 -24752-4 0  9995
2 60721  53.1594 240.7287 0001229  86.9174 273.1985 15.69729995107818
STARLINK-11188 [DTC]    
1 60722U 24152C   26189.54262297 -.00001897  00000+0 -10790-4 0  9991
2 60722  53.1590 240.6979 0001231  81.4566 278.6591 15.69739296107931
STARLINK-11272 [DTC]    
1 60723U 24152D   26189.15080925 -.00002599  00000+0 -16580-4 0  9998
2 60723  53.1594 242.5171 0001981  84.1995 275.9249 15.69717353107759
STARLINK-11261 [DTC]    
1 60724U 24152E   26189.41036690 -.00000609  00000+0 -16909-6 0  9995
2 60724  53.1605 241.2951 0000641  46.4091 313.6980 15.69737373107795
STARLINK-11263 [DTC]    
1 60725U 24152F   26189.52791447  .00003496  00000+0  33690-4 0  9995
2 60725  53.1566 240.5974 0000753  80.9961 279.1142 15.69718683107814
STARLINK-11235 [DTC]    
1 60726U 24152G   26189.52300569  .00000187  00000+0  64008-5 0  9999
2 60726  53.1583 240.5666 0000885  67.5134 292.5978 15.69710730107946
STARLINK-11080 [DTC]    
1 60727U 24152H   26189.51810306  .00000629  00000+0  10062-4 0  9995
2 60727  53.1579 240.5350 0001905  92.1121 268.0115 15.69712782107946
STARLINK-11249 [DTC]    
1 60728U 24152J   26189.13118860 -.00002430  00000+0 -15207-4 0  9990
2 60728  53.1569 242.3816 0000704  55.2037 304.9047 15.69710635107753
